[
    {
        "Altitude(m)": 607895.8586307814,
        "Argument of Periapsis(deg)": 0.0,
        "Eccentricity": 0.0,
        "Inclination(deg)": 60.0,
        "Latitude(deg)": 40.998451312763116,
        "Longitude(deg)": 100.08865507956011,
        "Mean Anomaly(deg)": 130.9091,
        "RAAN(deg)": 50.0,
        "Satellite Name": "Test1 228",
        "Satellite Number": 228,
        "Semi-Major Axis(m)": 6980739.136638005,
        "Time(s)": 0
    },
    {
        "Altitude(m)": 607795.1713362769,
        "Argument of Periapsis(deg)": 0.00010418945913296404,
        "Eccentricity": 0.0,
        "Inclination(deg)": 60.0,
        "Latitude(deg)": 40.53077548312596,
        "Longitude(deg)": 100.58524958091289,
        "Mean Anomaly(deg)": 131.5292061454618,
        "RAAN(deg)": 49.99957995086026,
        "Satellite Name": "Test1 228",
        "Satellite Number": 228,
        "Semi-Major Axis(m)": 6980739.136638005,
        "Time(s)": 10
    },
    {
        "Altitude(m)": 607694.6595778498,
        "Argument of Periapsis(deg)": 0.0002083789182659281,
        "Eccentricity": 0.0,
        "Inclination(deg)": 60.0,
        "Latitude(deg)": 40.06058969583639,
        "Longitude(deg)": 101.07440317510111,
        "Mean Anomaly(deg)": 132.14931229092366,
        "RAAN(deg)": 49.99915990172052,
        "Satellite Name": "Test1 228",
        "Satellite Number": 228,
        "Semi-Major Axis(m)": 6980739.136638005,
        "Time(s)": 20
    },
    {
        "Altitude(m)": 607594.3870542836,
        "Argument of Periapsis(deg)": 0.00031256837739889213,
        "Eccentricity": 0.0,
        "Inclination(deg)": 60.0,
        "Latitude(deg)": 39.58796752494679,
        "Longitude(deg)": 101.55630146912787,
        "Mean Anomaly(deg)": 132.7694184363855,
        "RAAN(deg)": 49.998739852580776,
        "Satellite Name": "Test1 228",
        "Satellite Number": 228,
        "Semi-Major Axis(m)": 6980739.136638005,
        "Time(s)": 30
    },
    {
        "Altitude(m)": 607494.4175647101,
        "Argument of Periapsis(deg)": 0.0004167578365318562,
        "Eccentricity": 0.0,
        "Inclination(deg)": 60.0,
        "Latitude(deg)": 39.11298030433337,
        "Longitude(deg)": 102.03112703004437,
        "Mean Anomaly(deg)": 133.38952458184733,
        "RAAN(deg)": 49.99831980344103,
        "Satellite Name": "Test1 228",
        "Satellite Number": 228,
        "Semi-Major Axis(m)": 6980739.136638005,
        "Time(s)": 40
    },
    {
        "Altitude(m)": 607394.8149767284,
        "Argument of Periapsis(deg)": 0.0005209472956648203,
        "Eccentricity": 0.0,
        "Inclination(deg)": 60.0,
        "Latitude(deg)": 38.63569720105744,
        "Longitude(deg)": 102.49905836450166,
        "Mean Anomaly(deg)": 134.00963072730917,
        "RAAN(deg)": 49.99789975430129,
        "Satellite Name": "Test1 228",
        "Satellite Number": 228,
        "Semi-Major Axis(m)": 6980739.136638005,
        "Time(s)": 50
    },
    {
        "Altitude(m)": 607295.6431943998,
        "Argument of Periapsis(deg)": 0.0006251367547977843,
        "Eccentricity": 0.0,
        "Inclination(deg)": 60.0,
        "Latitude(deg)": 38.15618528718658,
        "Longitude(deg)": 102.96027042199586,
        "Mean Anomaly(deg)": 134.629736872771,
        "RAAN(deg)": 49.997479705161545,
        "Satellite Name": "Test1 228",
        "Satellite Number": 228,
        "Semi-Major Axis(m)": 6980739.136638005,
        "Time(s)": 60
    },
    {
        "Altitude(m)": 607196.9661261874,
        "Argument of Periapsis(deg)": 0.0007293262139307483,
        "Eccentricity": 0.0,
        "Inclination(deg)": 60.0,
        "Latitude(deg)": 37.67450961000805,
        "Longitude(deg)": 103.41493510779804,
        "Mean Anomaly(deg)": 135.2498430182328,
        "RAAN(deg)": 49.997059656021804,
        "Satellite Name": "Test1 228",
        "Satellite Number": 228,
        "Semi-Major Axis(m)": 6980739.136638005,
        "Time(s)": 70
    },
    {
        "Altitude(m)": 607098.8476528209,
        "Argument of Periapsis(deg)": 0.0008335156730637124,
        "Eccentricity": 0.0,
        "Inclination(deg)": 60.0,
        "Latitude(deg)": 37.19073326058195,
        "Longitude(deg)": 103.86322029164762,
        "Mean Anomaly(deg)": 135.86994916369466,
        "RAAN(deg)": 49.996639606882056,
        "Satellite Name": "Test1 228",
        "Satellite Number": 228,
        "Semi-Major Axis(m)": 6980739.136638005,
        "Time(s)": 80
    },
    {
        "Altitude(m)": 607001.3515951678,
        "Argument of Periapsis(deg)": 0.0009377051321966765,
        "Eccentricity": 0.0,
        "Inclination(deg)": 60.0,
        "Latitude(deg)": 36.704917440594116,
        "Longitude(deg)": 104.30529033699838,
        "Mean Anomaly(deg)": 136.49005530915647,
        "RAAN(deg)": 49.996219557742315,
        "Satellite Name": "Test1 228",
        "Satellite Number": 228,
        "Semi-Major Axis(m)": 6980739.136638005,
        "Time(s)": 90
    },
    {
        "Altitude(m)": 606904.5416820107,
        "Argument of Periapsis(deg)": 0.0010418945913296407,
        "Eccentricity": 0.0,
        "Inclination(deg)": 60.0,
        "Latitude(deg)": 36.21712152748093,
        "Longitude(deg)": 104.74130663705981,
        "Mean Anomaly(deg)": 137.11016145461832,
        "RAAN(deg)": 49.99579950860257,
        "Satellite Name": "Test1 228",
        "Satellite Number": 228,
        "Semi-Major Axis(m)": 6980739.136638005,
        "Time(s)": 100
    },
    {
        "Altitude(m)": 606808.4815178867,
        "Argument of Periapsis(deg)": 0.0011460840504626045,
        "Eccentricity": 0.0,
        "Inclination(deg)": 60.0,
        "Latitude(deg)": 35.72740313780967,
        "Longitude(deg)": 105.17142664394808,
        "Mean Anomaly(deg)": 137.73026760008014,
        "RAAN(deg)": 49.99537945946283,
        "Satellite Name": "Test1 228",
        "Satellite Number": 228,
        "Semi-Major Axis(m)": 6980739.136638005,
        "Time(s)": 110
    },
    {
        "Altitude(m)": 606713.2345508802,
        "Argument of Periapsis(deg)": 0.0012502735095955685,
        "Eccentricity": 0.0,
        "Inclination(deg)": 60.0,
        "Latitude(deg)": 35.23581818890499,
        "Longitude(deg)": 105.59580441595845,
        "Mean Anomaly(deg)": 138.35037374554196,
        "RAAN(deg)": 49.99495941032309,
        "Satellite Name": "Test1 228",
        "Satellite Number": 228,
        "Semi-Major Axis(m)": 6980739.136638005,
        "Time(s)": 120
    },
    {
        "Altitude(m)": 606618.8640404576,
        "Argument of Periapsis(deg)": 0.0013544629687285324,
        "Eccentricity": 0.0,
        "Inclination(deg)": 60.0,
        "Latitude(deg)": 34.7424209587222,
        "Longitude(deg)": 106.01459116940661,
        "Mean Anomaly(deg)": 138.97047989100378,
        "RAAN(deg)": 49.99453936118335,
        "Satellite Name": "Test1 228",
        "Satellite Number": 228,
        "Semi-Major Axis(m)": 6980739.136638005,
        "Time(s)": 130
    },
    {
        "Altitude(m)": 606525.4330253509,
        "Argument of Periapsis(deg)": 0.0014586524278614966,
        "Eccentricity": 0.0,
        "Inclination(deg)": 60.0,
        "Latitude(deg)": 34.247264143974704,
        "Longitude(deg)": 106.42793432154886,
        "Mean Anomaly(deg)": 139.59058603646565,
        "RAAN(deg)": 49.99411931204361,
        "Satellite Name": "Test1 228",
        "Satellite Number": 228,
        "Semi-Major Axis(m)": 6980739.136638005,
        "Time(s)": 140
    },
    {
        "Altitude(m)": 606433.0042914654,
        "Argument of Periapsis(deg)": 0.0015628418869944607,
        "Eccentricity": 0.0,
        "Inclination(deg)": 60.0,
        "Latitude(deg)": 33.750398916527686,
        "Longitude(deg)": 106.83597804977019,
        "Mean Anomaly(deg)": 140.21069218192747,
        "RAAN(deg)": 49.99369926290386,
        "Satellite Name": "Test1 228",
        "Satellite Number": 228,
        "Semi-Major Axis(m)": 6980739.136638005,
        "Time(s)": 150
    },
    {
        "Altitude(m)": 606341.6403398879,
        "Argument of Periapsis(deg)": 0.0016670313461274247,
        "Eccentricity": 0.0,
        "Inclination(deg)": 60.0,
        "Latitude(deg)": 33.25187497807713,
        "Longitude(deg)": 107.23886385365658,
        "Mean Anomaly(deg)": 140.8307983273893,
        "RAAN(deg)": 49.99327921376412,
        "Satellite Name": "Test1 228",
        "Satellite Number": 228,
        "Semi-Major Axis(m)": 6980739.136638005,
        "Time(s)": 160
    },
    {
        "Altitude(m)": 606251.403354969,
        "Argument of Periapsis(deg)": 0.0017712208052603888,
        "Eccentricity": 0.0,
        "Inclination(deg)": 60.0,
        "Latitude(deg)": 32.75174061313703,
        "Longitude(deg)": 107.63672960661474,
        "Mean Anomaly(deg)": 141.45090447285114,
        "RAAN(deg)": 49.99285916462438,
        "Satellite Name": "Test1 228",
        "Satellite Number": 228,
        "Semi-Major Axis(m)": 6980739.136638005,
        "Time(s)": 170
    },
    {
        "Altitude(m)": 606162.3551724883,
        "Argument of Periapsis(deg)": 0.001875410264393353,
        "Eccentricity": 0.0,
        "Inclination(deg)": 60.0,
        "Latitude(deg)": 32.250042740361216,
        "Longitude(deg)": 108.02971012237252,
        "Mean Anomaly(deg)": 142.07101061831295,
        "RAAN(deg)": 49.992439115484636,
        "Satellite Name": "Test1 228",
        "Satellite Number": 228,
        "Semi-Major Axis(m)": 6980739.136638005,
        "Time(s)": 180
    },
    {
        "Altitude(m)": 606074.5572479583,
        "Argument of Periapsis(deg)": 0.0019795997235263173,
        "Eccentricity": 0.0,
        "Inclination(deg)": 60.0,
        "Latitude(deg)": 31.74682696222988,
        "Longitude(deg)": 108.41793772310822,
        "Mean Anomaly(deg)": 142.69111676377477,
        "RAAN(deg)": 49.992019066344895,
        "Satellite Name": "Test1 228",
        "Satellite Number": 228,
        "Semi-Major Axis(m)": 6980739.136638005,
        "Time(s)": 190
    }
]